BEIDOU-2 IGSO-1 (C06)   
1 36828U 10036A   23241.22984787 -.00000165  00000+0  00000+0 0  9997
2 36828  54.2370 172.2276 0036840 189.2266 165.9907  1.00254822 47969
BEIDOU-2 G4 (C04)       
1 37210U 10057A   23241.08340358 -.00000124  00000+0  00000+0 0  9995
2 37210   1.1612  60.5425 0005661 147.2757 319.1701  1.00270998 47020
BEIDOU-2 IGSO-2 (C07)   
1 37256U 10068A   23241.11242900 -.00000159  00000+0  00000+0 0  9993
2 37256  49.4198 284.3814 0032437 212.3130 348.6020  1.00285651 46530
BEIDOU-2 IGSO-3 (C08)   
1 37384U 11013A   23240.41171326 -.00000149  00000+0  00000+0 0  9990
2 37384  60.9286  49.9620 0028021 173.9586   8.5482  1.00283133 45399
BEIDOU-2 IGSO-4 (C09)   
1 37763U 11038A   23241.16600419 -.00000102  00000+0  00000+0 0  9990
2 37763  54.5109 174.7690 0112092 228.1689  89.4823  1.00275035 44383
BEIDOU-2 IGSO-5 (C10)   
1 37948U 11073A   23241.09285396 -.00000113  00000+0  00000+0 0  9991
2 37948  49.5448 284.0495 0095074 220.3796 322.0914  1.00273716 43143
BEIDOU-2 G5 (C05)       
1 38091U 12008A   23240.76052578  .00000047  00000+0  00000+0 0  9992
2 38091   1.6926  68.3072 0002479 164.4946  76.3627  1.00270234 42106
BEIDOU-2 M3 (C11)       
1 38250U 12018A   23241.37947800 -.00000083  00000+0  00000+0 0  9990
2 38250  56.5125 339.0724 0022525 255.3266 163.2043  1.86231265 77240
BEIDOU-2 M4 (C12)       
1 38251U 12018B   23239.07549889 -.00000080  00000+0  00000+0 0  9997
2 38251  56.4268 338.4430 0013872 254.7032 105.1752  1.86231738 76857
BEIDOU-2 M6 (C14)       
1 38775U 12050B   23240.93332113  .00000021  00000+0  00000+0 0  9995
2 38775  55.6855  96.9819 0011880 339.2557  20.7925  1.86231169 74609
BEIDOU-2 G6 (C02)       
1 38953U 12059A   23241.33889686 -.00000187  00000+0  00000+0 0  9993
2 38953   1.8089  81.9693 0007632 316.0799 145.2844  1.00269533 39790
BEIDOU-3S IGSO-1S (C31) 
1 40549U 15019A   23241.11633641 -.00000148  00000+0  00000+0 0  9997
2 40549  51.1109 307.6467 0040784 195.8291 329.6613  1.00256941 30823
BEIDOU-3S M2S (C57)     
1 40748U 15037A   23240.88917456 -.00000081  00000+0  00000+0 0  9996
2 40748  55.6662 336.9861 0010962 240.1050 119.8220  1.86233049 55066
BEIDOU-3S M1S (C58)     
1 40749U 15037B   23240.62231794 -.00000080  00000+0  00000+0 0  9992
2 40749  55.6694 336.9815 0002877 305.0252  54.9830  1.86232749 55064
BEIDOU-3S IGSO-2S (C56) 
1 40938U 15053A   23241.43332338 -.00000084  00000+0  00000+0 0  9990
2 40938  50.8182 270.8137 0047888 194.4491 123.9333  1.00284308 29095
BEIDOU-2 IGSO-6 (C13)   
1 41434U 16021A   23240.92757647 -.00000131  00000+0  00000+0 0  9998
2 41434  58.7433  48.3306 0047099 217.6327 141.0891  1.00283821 27210
BEIDOU-2 G7 (C03)       
1 41586U 16037A   23241.16006090 -.00000366  00000+0  00000+0 0  9999
2 41586   1.8547  68.3500 0007562 348.0478  88.8818  1.00273781 26522
BEIDOU-3 M1 (C19)       
1 43001U 17069A   23240.69966688  .00000020  00000+0  00000+0 0  9990
2 43001  55.8365  97.0482 0008043 301.7019  58.3153  1.86231358 39541
BEIDOU-3 M2 (C20)       
1 43002U 17069B   23241.17333802  .00000022  00000+0  00000+0 0  9993
2 43002  55.8364  97.0681 0006516 333.6689  26.3950  1.86231068 39540
BEIDOU-3 M7 (C27)       
1 43107U 18003A   23240.92415017 -.00000082  00000+0  00000+0 0  9996
2 43107  55.1222 337.7044 0003680  78.7859 281.2900  1.86232324 38300
BEIDOU-3 M8 (C28)       
1 43108U 18003B   23241.39915503 -.00000083  00000+0  00000+0 0  9995
2 43108  55.1150 337.6751 0003821 241.7082 118.2889  1.86230800 38315
BEIDOU-3 M4 (C22)       
1 43207U 18018A   23240.23072279  .00000018  00000+0  00000+0 0  9994
2 43207  55.7949  97.1631 0004990  10.3422 349.7622  1.86231302 37670
BEIDOU-3 M3 (C21)       
1 43208U 18018B   23240.29737267  .00000018  00000+0  00000+0 0  9996
2 43208  55.7944  97.1653 0006075 318.5744  41.4738  1.86231184 37678
BEIDOU-3 M9 (C29)       
1 43245U 18029A   23240.52020290 -.00000079  00000+0  00000+0 0  9994
2 43245  55.0173 335.4530 0001246 205.4010 154.6301  1.86232300 36834
BEIDOU-3 M10 (C30)      
1 43246U 18029B   23240.45024989 -.00000079  00000+0  00000+0 0  9996
2 43246  55.0144 335.4837 0002708   1.0139 359.0237  1.86232804 36815
BEIDOU-2 IGSO-7 (C16)   
1 43539U 18057A   23240.60258769 -.00000171  00000+0  00000+0 0  9997
2 43539  55.1212 171.9184 0064574 231.3305 263.2910  1.00285447 18885
BEIDOU-3 M5 (C23)       
1 43581U 18062A   23241.20748612  .00000039  00000+0  00000+0 0  9990
2 43581  54.1796 217.1213 0005436 278.9611  80.9513  1.86231756 34589
BEIDOU-3 M6 (C24)       
1 43582U 18062B   23241.07333406  .00000040  00000+0  00000+0 0  9999
2 43582  54.1792 217.1155 0004919 352.5447   7.4228  1.86229559 34587
BEIDOU-3 M12 (C26)      
1 43602U 18067A   23240.47275063  .00000047  00000+0  00000+0 0  9991
2 43602  54.2666 215.7906 0006901  11.2276 348.7653  1.86231471 34052
BEIDOU-3 M11 (C25)      
1 43603U 18067B   23241.14351420  .00000038  00000+0  00000+0 0  9999
2 43603  54.2636 215.7335 0004053 354.6297   5.3386  1.86231418 34093
BEIDOU-3 M13 (C32)      
1 43622U 18072A   23241.10237803  .00000022  00000+0  00000+0 0  9993
2 43622  55.7654  96.6738 0004727 300.1796  59.8701  1.86231538 33605
BEIDOU-3 M14 (C33)      
1 43623U 18072B   23240.96783362  .00000021  00000+0  00000+0 0  9992
2 43623  55.7671  96.6710 0003322 345.5991  14.4878  1.86231557 33608
BEIDOU-3 M16 (C35)      
1 43647U 18078A   23240.05611263 -.00000079  00000+0  00000+0 0  9998
2 43647  54.9135 335.5917 0005974  11.2691 348.7804  1.86227120 33088
BEIDOU-3 M15 (C34)      
1 43648U 18078B   23240.18692245 -.00000079  00000+0  00000+0 0  9992
2 43648  54.9090 335.5911 0002931  26.6442 333.4073  1.86232138 33115
BEIDOU-3 G1 (C59)       
1 43683U 18085A   23240.84833157 -.00000290  00000+0  00000+0 0  9996
2 43683   1.4991 124.8590 0003179 349.7383 307.6662  1.00269340 17795
BEIDOU-3 M17 (C36)      
1 43706U 18093A   23240.33500988  .00000051  00000+0  00000+0 0  9992
2 43706  54.2621 217.0680 0010519 279.2602  80.6010  1.86231865 32471
BEIDOU-3 M18 (C37)      
1 43707U 18093B   23241.27478305  .00000038  00000+0  00000+0 0  9999
2 43707  54.2627 217.0275 0008639 303.5548  56.3360  1.86229659 32485
BEIDOU-3 IGSO-1 (C38)   
1 44204U 19023A   23240.33170841 -.00000187  00000+0  00000+0 0  9992
2 44204  57.2084  48.3167 0023503 193.8045 333.1303  1.00284180 16078
BEIDOU-2 G8 (C01)       
1 44231U 19027A   23241.41072926 -.00000259  00000+0  00000+0 0  9991
2 44231   1.9395  81.1598 0006072 124.5796  64.0168  1.00272869 15819
BEIDOU-3 IGSO-2 (C39)   
1 44337U 19035A   23240.70090441 -.00000177  00000+0  00000+0 0  9999
2 44337  55.1539 167.8512 0033139 197.2669 343.5800  1.00276424 15409
BEIDOU-3 M24 (C46)      
1 44542U 19061A   23241.34654921  .00000038  00000+0  00000+0 0  9991
2 44542  54.4892 217.2620 0008355 337.4262  22.5102  1.86231393 26748
BEIDOU-3 M23 (C45)      
1 44543U 19061B   23240.58429837  .00000048  00000+0  00000+0 0  9994
2 44543  54.4875 217.2572 0005951 320.5070 160.2580  1.86231649 26738
BEIDOU-3 IGSO-3 (C40)   
1 44709U 19073A   23239.54659779 -.00000146  00000+0  00000+0 0  9995
2 44709  56.5462 291.8342 0035287 189.3278 170.7304  1.00284594 14185
BEIDOU-3 M22 (C44)      
1 44793U 19078A   23236.82124944 -.00000080  00000+0  00000+0 0  9999
2 44793  54.7637 335.6725 0005013  20.5342 289.2167  1.86232622 25517
BEIDOU-3 M21 (C43)      
1 44794U 19078B   23241.32247510 -.00000080  00000+0  00000+0 0  9996
2 44794  54.7349 335.4982 0002813  13.9286 346.1178  1.86232532 25604
BEIDOU-3 M19 (C41)      
1 44864U 19090A   23239.23811713  .00000011  00000+0  00000+0 0  9990
2 44864  55.6978  96.9241 0015695 276.1688 320.2288  1.86231647 25148
BEIDOU-3 M20 (C42)      
1 44865U 19090B   23241.17271360  .00000022  00000+0  00000+0 0  9997
2 44865  55.7012  96.8916 0013592 291.1712 252.0670  1.86231542 25169
BEIDOU-3 G2 (C60)       
1 45344U 20017A   23240.83640948 -.00000150  00000+0  00000+0 0  9998
2 45344   2.0440  15.8131 0003457 145.6789 196.4360  1.00270019 12990
BEIDOU-3 G3 (C61)       
1 45807U 20040A   23241.34411822 -.00000364  00000+0  00000+0 0  9999
2 45807   0.6212 342.3886 0004706 346.8242 242.3517  1.00263721 11825
BEIDOU-3 G4             
1 56564U 23066A   23240.92395421 -.00000123  00000+0  00000+0 0  9994
2 56564   2.8619 288.8221 0007331 208.0451 332.5748  1.00272558  1147
